{
  "type": "FeatureCollection",
  "features": [
    {
      "type": "Feature",
      "properties": {
        "norad_id": 34797,
        "name": "COSMOS 2251 DEB",
        "group": "cosmos-2251-debris",
        "lat": -21.127925489532025,
        "lon": -57.954593229914146,
        "alt_km": 709.3857063769156,
        "timestamp": "2025-12-04T07:39:36.526945+00:00",
        "meta_object_name": "COSMOS 2251 DEB",
        "meta_object_id": "1993-036ABA",
        "meta_epoch": "2025-12-02T16:26:28.609440",
        "meta_mean_motion": 14.42535201,
        "meta_eccentricity": 0.00725247,
        "meta_inclination": 73.9763,
        "meta_ra_of_asc_node": 118.7115,
        "meta_arg_of_pericenter": 233.7261,
        "meta_mean_anomaly": 125.7182,
        "meta_ephemeris_type": 0,
        "meta_classification_type": "U",
        "meta_norad_cat_id": 34797,
        "meta_element_set_no": 999,
        "meta_rev_at_epoch": 87270,
        "meta_bstar": 0.0028458232,
        "meta_mean_motion_dot": 9.728e-05,
        "meta_mean_motion_ddot": 0,
        "tle_line1": "1 34797U 93036ABA 25336.68505335  .00009728  00000+0  28458-2 0  9999",
        "tle_line2": "2 34797  73.9763 118.7115 0072524 233.7261 125.7182 14.42535201872702"
      },
      "geometry": {
        "type": "Point",
        "coordinates": [
          -57.954593229914146,
          -21.127925489532025
        ]
      }
    },
    {
      "type": "Feature",
      "properties": {
        "norad_id": 34814,
        "name": "COSMOS 2251 DEB",
        "group": "cosmos-2251-debris",
        "lat": 2.7079383104741033,
        "lon": -18.161508092862665,
        "alt_km": 797.7699747230781,
        "timestamp": "2025-12-04T07:39:36.526954+00:00",
        "meta_object_name": "COSMOS 2251 DEB",
        "meta_object_id": "1993-036ABD",
        "meta_epoch": "2025-12-02T11:13:46.501248",
        "meta_mean_motion": 14.36815971,
        "meta_eccentricity": 0.00568423,
        "meta_inclination": 73.8957,
        "meta_ra_of_asc_node": 344.4866,
        "meta_arg_of_pericenter": 235.7348,
        "meta_mean_anomaly": 274.6986,
        "meta_ephemeris_type": 0,
        "meta_classification_type": "U",
        "meta_norad_cat_id": 34814,
        "meta_element_set_no": 999,
        "meta_rev_at_epoch": 87185,
        "meta_bstar": 0.0010643945,
        "meta_mean_motion_dot": 3.176e-05,
        "meta_mean_motion_ddot": 0,
        "tle_line1": "1 34814U 93036ABD 25336.46789932  .00003176  00000+0  10644-2 0  9991",
        "tle_line2": "2 34814  73.8957 344.4866 0056842 235.7348 274.6986 14.36815971871859"
      },
      "geometry": {
        "type": "Point",
        "coordinates": [
          -18.161508092862665,
          2.7079383104741033
        ]
      }
    },
    {
      "type": "Feature",
      "properties": {
        "norad_id": 34815,
        "name": "COSMOS 2251 DEB",
        "group": "cosmos-2251-debris",
        "lat": -13.85625378999485,
        "lon": -105.71438526542725,
        "alt_km": 599.83540733679,
        "timestamp": "2025-12-04T07:39:36.526963+00:00",
        "meta_object_name": "COSMOS 2251 DEB",
        "meta_object_id": "1993-036ABE",
        "meta_epoch": "2025-12-03T13:51:22.817952",
        "meta_mean_motion": 14.78088557,
        "meta_eccentricity": 0.00590507,
        "meta_inclination": 74.0463,
        "meta_ra_of_asc_node": 259.7872,
        "meta_arg_of_pericenter": 330.9325,
        "meta_mean_anomaly": 28.8566,
        "meta_ephemeris_type": 0,
        "meta_classification_type": "U",
        "meta_norad_cat_id": 34815,
        "meta_element_set_no": 999,
        "meta_rev_at_epoch": 88492,
        "meta_bstar": 0.001634406,
        "meta_mean_motion_dot": 0.00012155,
        "meta_mean_motion_ddot": 0,
        "tle_line1": "1 34815U 93036ABE 25337.57734743  .00012155  00000+0  16344-2 0  9995",
        "tle_line2": "2 34815  74.0463 259.7872 0059050 330.9325  28.8566 14.78088557884920"
      },
      "geometry": {
        "type": "Point",
        "coordinates": [
          -105.71438526542725,
          -13.85625378999485
        ]
      }
    },
    {
      "type": "Feature",
      "properties": {
        "norad_id": 34816,
        "name": "COSMOS 2251 DEB",
        "group": "cosmos-2251-debris",
        "lat": -26.162293349442145,
        "lon": 148.69745398174192,
        "alt_km": 1132.740034266014,
        "timestamp": "2025-12-04T07:39:36.526973+00:00",
        "meta_object_name": "COSMOS 2251 DEB",
        "meta_object_id": "1993-036ABF",
        "meta_epoch": "2025-12-03T06:10:46.926048",
        "meta_mean_motion": 13.58283045,
        "meta_eccentricity": 0.0373745,
        "meta_inclination": 73.8861,
        "meta_ra_of_asc_node": 158.593,
        "meta_arg_of_pericenter": 224.7049,
        "meta_mean_anomaly": 314.4822,
        "meta_ephemeris_type": 0,
        "meta_classification_type": "U",
        "meta_norad_cat_id": 34816,
        "meta_element_set_no": 999,
        "meta_rev_at_epoch": 82654,
        "meta_bstar": 0.0013936,
        "meta_mean_motion_dot": 1.573e-05,
        "meta_mean_motion_ddot": 0,
        "tle_line1": "1 34816U 93036ABF 25337.25748757  .00001573  00000+0  13936-2 0  9997",
        "tle_line2": "2 34816  73.8861 158.5930 0373745 224.7049 314.4822 13.58283045826543"
      },
      "geometry": {
        "type": "Point",
        "coordinates": [
          148.69745398174192,
          -26.162293349442145
        ]
      }
    },
    {
      "type": "Feature",
      "properties": {
        "norad_id": 34818,
        "name": "COSMOS 2251 DEB",
        "group": "cosmos-2251-debris",
        "lat": 65.76627121981917,
        "lon": -8.084228994453115,
        "alt_km": 749.0476118707638,
        "timestamp": "2025-12-04T07:39:36.526982+00:00",
        "meta_object_name": "COSMOS 2251 DEB",
        "meta_object_id": "1993-036ABH",
        "meta_epoch": "2025-12-02T09:14:30.798816",
        "meta_mean_motion": 14.36943811,
        "meta_eccentricity": 0.00237378,
        "meta_inclination": 74.0353,
        "meta_ra_of_asc_node": 315.979,
        "meta_arg_of_pericenter": 34.4087,
        "meta_mean_anomaly": 115.9286,
        "meta_ephemeris_type": 0,
        "meta_classification_type": "U",
        "meta_norad_cat_id": 34818,
        "meta_element_set_no": 999,
        "meta_rev_at_epoch": 87221,
        "meta_bstar": 0.00031365968,
        "meta_mean_motion_dot": 9.06e-06,
        "meta_mean_motion_ddot": 0,
        "tle_line1": "1 34818U 93036ABH 25336.38507869  .00000906  00000+0  31366-3 0  9996",
        "tle_line2": "2 34818  74.0353 315.9790 0023737  34.4087 115.9286 14.36943811872212"
      },
      "geometry": {
        "type": "Point",
        "coordinates": [
          -8.084228994453115,
          65.76627121981917
        ]
      }
    },
    {
      "type": "Feature",
      "properties": {
        "norad_id": 34819,
        "name": "COSMOS 2251 DEB",
        "group": "cosmos-2251-debris",
        "lat": -67.78050496327442,
        "lon": 23.404494278394225,
        "alt_km": 676.6753430550452,
        "timestamp": "2025-12-04T07:39:36.526991+00:00",
        "meta_object_name": "COSMOS 2251 DEB",
        "meta_object_id": "1993-036ABJ",
        "meta_epoch": "2025-12-03T19:07:17.539392",
        "meta_mean_motion": 14.63739976,
        "meta_eccentricity": 0.00160353,
        "meta_inclination": 74.0165,
        "meta_ra_of_asc_node": 159.8472,
        "meta_arg_of_pericenter": 253.3576,
        "meta_mean_anomaly": 129.1043,
        "meta_ephemeris_type": 0,
        "meta_classification_type": "U",
        "meta_norad_cat_id": 34819,
        "meta_element_set_no": 999,
        "meta_rev_at_epoch": 88098,
        "meta_bstar": 0.0021318446,
        "meta_mean_motion_dot": 0.00011117,
        "meta_mean_motion_ddot": 0,
        "tle_line1": "1 34819U 93036ABJ 25337.79673078  .00011117  00000+0  21318-2 0  9990",
        "tle_line2": "2 34819  74.0165 159.8472 0016035 253.3576 129.1043 14.63739976880980"
      },
      "geometry": {
        "type": "Point",
        "coordinates": [
          23.404494278394225,
          -67.78050496327442
        ]
      }
    },
    {
      "type": "Feature",
      "properties": {
        "norad_id": 34823,
        "name": "COSMOS 2251 DEB",
        "group": "cosmos-2251-debris",
        "lat": -32.62501284183913,
        "lon": -51.22458850155622,
        "alt_km": 606.7634481775731,
        "timestamp": "2025-12-04T07:39:36.527000+00:00",
        "meta_object_name": "COSMOS 2251 DEB",
        "meta_object_id": "1993-036ABN",
        "meta_epoch": "2025-12-03T09:13:20.032032",
        "meta_mean_motion": 14.54804511,
        "meta_eccentricity": 0.01555596,
        "meta_inclination": 74.0395,
        "meta_ra_of_asc_node": 119.9881,
        "meta_arg_of_pericenter": 207.0513,
        "meta_mean_anomaly": 152.2484,
        "meta_ephemeris_type": 0,
        "meta_classification_type": "U",
        "meta_norad_cat_id": 34823,
        "meta_element_set_no": 999,
        "meta_rev_at_epoch": 88245,
        "meta_bstar": 0.0013569091,
        "meta_mean_motion_dot": 6.819e-05,
        "meta_mean_motion_ddot": 0,
        "tle_line1": "1 34823U 93036ABN 25337.38425963  .00006819  00000+0  13569-2 0  9990",
        "tle_line2": "2 34823  74.0395 119.9881 0155559 207.0513 152.2484 14.54804511882451"
      },
      "geometry": {
        "type": "Point",
        "coordinates": [
          -51.22458850155622,
          -32.62501284183913
        ]
      }
    }
  ]
}